start=new Date('2023-01-02T00:00:00.000Z').valueOf();
sats=[{"MEAN_MOTION_DDOT":"0.0000000000000","EPOCH":"2023-01-01T22:13:35.416704","BSTAR":"-0.00018987000000","TLE_LINE1":"1 47828U 21018AT  23001.92610436 -.00003108  00000-0 -18987-3 0  9998","DECAY_DATE":null,"SITE":"AFETR","MEAN_ANOMALY":"298.8381","GP_ID":"221989040","OBJECT_TYPE":"PAYLOAD","COUNTRY_CODE":"US","REV_AT_EPOCH":"10120","ECCENTRICITY":"0.00013560","OBJECT_ID":"2021-018AT","TLE_LINE2":"2 47828  53.0545  81.4794 0001356  61.2744 298.8381 15.06395368101204","LAUNCH_DATE":"2021-03-11","OBJECT_NAME":"STARLINK-2415","RA_OF_ASC_NODE":"81.4794","INCLINATION":"53.0545","TIME_SYSTEM":"UTC","NORAD_CAT_ID":"47828","CENTER_NAME":"EARTH","CLASSIFICATION_TYPE":"U","ELEMENT_SET_NO":"999","MEAN_ELEMENT_THEORY":"SGP4","MEAN_MOTION_DOT":"-0.00003108","PERIOD":"95.592","PERIAPSIS":"546.289","EPHEMERIS_TYPE":"0","SEMIMAJOR_AXIS":"6925.363","APOAPSIS":"548.167","FILE":"3728952","ARG_OF_PERICENTER":"61.2744","MEAN_MOTION":"15.06395368","REF_FRAME":"TEME","RCS_SIZE":"LARGE"},{"DECAY_DATE":null,"TLE_LINE1":"1 47829U 21018AU  23001.94453246 -.00005888  00000-0 -37688-3 0  9991","BSTAR":"-0.00037688000000","SITE":"AFETR","MEAN_MOTION_DDOT":"0.0000000000000","EPOCH":"2023-01-01T22:40:07.604544","REV_AT_EPOCH":"10086","ECCENTRICITY":"0.00017760","OBJECT_ID":"2021-018AU","MEAN_ANOMALY":"315.8071","GP_ID":"221966055","OBJECT_TYPE":"PAYLOAD","COUNTRY_CODE":"US","LAUNCH_DATE":"2021-03-11","TLE_LINE2":"2 47829  53.0549  81.3895 0001776  44.3060 315.8071 15.06384540100866","TIME_SYSTEM":"UTC","OBJECT_NAME":"STARLINK-2416","RA_OF_ASC_NODE":"81.3895","INCLINATION":"53.0549","ELEMENT_SET_NO":"999","MEAN_ELEMENT_THEORY":"SGP4","MEAN_MOTION_DOT":"-0.00005888","NORAD_CAT_ID":"47829","CENTER_NAME":"EARTH","CLASSIFICATION_TYPE":"U","SEMIMAJOR_AXIS":"6925.396","PERIOD":"95.593","PERIAPSIS":"546.031","EPHEMERIS_TYPE":"0","APOAPSIS":"548.491","FILE":"3728924","ARG_OF_PERICENTER":"44.3060","MEAN_MOTION":"15.06384540","RCS_SIZE":"MEDIUM","REF_FRAME":"TEME"},{"TLE_LINE1":"1 47830U 21018AV  23001.94084207 -.00003685  00000-0 -22885-3 0  9996","DECAY_DATE":null,"SITE":"AFETR","BSTAR":"-0.00022885000000","EPOCH":"2023-01-01T22:34:48.754848","MEAN_MOTION_DDOT":"0.0000000000000","OBJECT_ID":"2021-018AV","ECCENTRICITY":"0.00019620","REV_AT_EPOCH":"10086","COUNTRY_CODE":"US","GP_ID":"221966061","OBJECT_TYPE":"PAYLOAD","MEAN_ANOMALY":"318.9920","LAUNCH_DATE":"2021-03-11","TLE_LINE2":"2 47830  53.0535  81.4078 0001962  41.1217 318.9920 15.06364503100867","TIME_SYSTEM":"UTC","INCLINATION":"53.0535","RA_OF_ASC_NODE":"81.4078","OBJECT_NAME":"STARLINK-2419","MEAN_MOTION_DOT":"-0.00003685","MEAN_ELEMENT_THEORY":"SGP4","ELEMENT_SET_NO":"999","CLASSIFICATION_TYPE":"U","NORAD_CAT_ID":"47830","CENTER_NAME":"EARTH","SEMIMAJOR_AXIS":"6925.457","PERIAPSIS":"545.964","EPHEMERIS_TYPE":"0","PERIOD":"95.594","MEAN_MOTION":"15.06364503","ARG_OF_PERICENTER":"41.1217","FILE":"3728924","APOAPSIS":"548.681","RCS_SIZE":"LARGE","REF_FRAME":"TEME"},{"LAUNCH_DATE":"2021-03-11","TLE_LINE2":"2 47831  53.0534  56.6930 0001803  36.7650 323.3462 15.06378159101597","TIME_SYSTEM":"UTC","OBJECT_NAME":"STARLINK-2420","RA_OF_ASC_NODE":"56.6930","INCLINATION":"53.0534","TLE_LINE1":"1 47831U 21018AW  23001.87495326  .00003163  00000-0  23130-3 0  9990","DECAY_DATE":null,"BSTAR":"0.00023130000000","SITE":"AFETR","MEAN_MOTION_DDOT":"0.0000000000000","EPOCH":"2023-01-01T20:59:55.961664","REV_AT_EPOCH":"10159","ECCENTRICITY":"0.00018030","OBJECT_ID":"2021-018AW","MEAN_ANOMALY":"323.3462","OBJECT_TYPE":"PAYLOAD","GP_ID":"221988289","COUNTRY_CODE":"US","APOAPSIS":"548.529","FILE":"3728952","ARG_OF_PERICENTER":"36.7650","MEAN_MOTION":"15.06378159","RCS_SIZE":"LARGE","REF_FRAME":"TEME","ELEMENT_SET_NO":"999","MEAN_ELEMENT_THEORY":"SGP4","MEAN_MOTION_DOT":"0.00003163","NORAD_CAT_ID":"47831","CENTER_NAME":"EARTH","CLASSIFICATION_TYPE":"U","SEMIMAJOR_AXIS":"6925.415","PERIOD":"95.594","PERIAPSIS":"546.032","EPHEMERIS_TYPE":"0"},{"TLE_LINE2":"2 47832  53.0550  71.6060 0002055  45.2671 314.8485 15.06381101101338","LAUNCH_DATE":"2021-03-11","INCLINATION":"53.0550","RA_OF_ASC_NODE":"71.6060","OBJECT_NAME":"STARLINK-2422","TIME_SYSTEM":"UTC","EPOCH":"2023-01-01T21:32:26.973024","MEAN_MOTION_DDOT":"0.0000000000000","TLE_LINE1":"1 47832U 21018AX  23001.89753441 -.00006176  00000-0 -39628-3 0  9996","DECAY_DATE":null,"SITE":"AFETR","BSTAR":"-0.00039628000000","COUNTRY_CODE":"US","OBJECT_TYPE":"PAYLOAD","GP_ID":"221988541","MEAN_ANOMALY":"314.8485","OBJECT_ID":"2021-018AX","ECCENTRICITY":"0.00020550","REV_AT_EPOCH":"10133","MEAN_MOTION":"15.06381101","ARG_OF_PERICENTER":"45.2671","FILE":"3728952","APOAPSIS":"548.695","REF_FRAME":"TEME","RCS_SIZE":"LARGE","CLASSIFICATION_TYPE":"U","NORAD_CAT_ID":"47832","CENTER_NAME":"EARTH","MEAN_MOTION_DOT":"-0.00006176","MEAN_ELEMENT_THEORY":"SGP4","ELEMENT_SET_NO":"999","EPHEMERIS_TYPE":"0","PERIAPSIS":"545.848","PERIOD":"95.593","SEMIMAJOR_AXIS":"6925.406"},{"MEAN_MOTION_DDOT":"0.0000000000000","EPOCH":"2023-01-01T22:09:36.228672","TLE_LINE1":"1 47833U 21018AY  23001.92333598  .00003973  00000-0  28565-3 0  9996","DECAY_DATE":null,"BSTAR":"0.00028565000000","SITE":"AFETR","MEAN_ANOMALY":"312.0154","OBJECT_TYPE":"PAYLOAD","GP_ID":"221988791","COUNTRY_CODE":"US","REV_AT_EPOCH":"10139","ECCENTRICITY":"0.00015380","OBJECT_ID":"2021-018AY","TLE_LINE2":"2 47833  53.0556  71.4752 0001538  48.0966 312.0154 15.06372760101394","LAUNCH_DATE":"2021-03-11","OBJECT_NAME":"STARLINK-2423","RA_OF_ASC_NODE":"71.4752","INCLINATION":"53.0556","TIME_SYSTEM":"UTC","NORAD_CAT_ID":"47833","CENTER_NAME":"EARTH","CLASSIFICATION_TYPE":"U","ELEMENT_SET_NO":"999","MEAN_ELEMENT_THEORY":"SGP4","MEAN_MOTION_DOT":"0.00003973","PERIOD":"95.594","PERIAPSIS":"546.232","EPHEMERIS_TYPE":"0","SEMIMAJOR_AXIS":"6925.432","APOAPSIS":"548.362","FILE":"3728952","ARG_OF_PERICENTER":"48.0966","MEAN_MOTION":"15.06372760","REF_FRAME":"TEME","RCS_SIZE":"LARGE"},{"PERIOD":"95.593","EPHEMERIS_TYPE":"0","PERIAPSIS":"545.727","SEMIMAJOR_AXIS":"6925.393","NORAD_CAT_ID":"47834","CENTER_NAME":"EARTH","CLASSIFICATION_TYPE":"U","ELEMENT_SET_NO":"999","MEAN_ELEMENT_THEORY":"SGP4","MEAN_MOTION_DOT":"-0.00003705","REF_FRAME":"TEME","RCS_SIZE":"LARGE","APOAPSIS":"548.789","FILE":"3728759","ARG_OF_PERICENTER":"34.0526","MEAN_MOTION":"15.06385546","MEAN_ANOMALY":"326.0604","GP_ID":"221932168","OBJECT_TYPE":"PAYLOAD","COUNTRY_CODE":"US","REV_AT_EPOCH":"10134","ECCENTRICITY":"0.00022110","OBJECT_ID":"2021-018AZ","MEAN_MOTION_DDOT":"0.0000000000000","EPOCH":"2023-01-01T14:27:50.099616","TLE_LINE1":"1 47834U 21018AZ  23001.60266319 -.00003705  00000-0 -23000-3 0  9992","DECAY_DATE":null,"BSTAR":"-0.00023000000000","SITE":"AFETR","OBJECT_NAME":"STARLINK-2424","RA_OF_ASC_NODE":"72.9283","INCLINATION":"53.0564","TIME_SYSTEM":"UTC","TLE_LINE2":"2 47834  53.0564  72.9283 0002211  34.0526 326.0604 15.06385546101341","LAUNCH_DATE":"2021-03-11"},{"PERIOD":"95.593","EPHEMERIS_TYPE":"0","PERIAPSIS":"545.982","SEMIMAJOR_AXIS":"6925.393","NORAD_CAT_ID":"47835","CENTER_NAME":"EARTH","CLASSIFICATION_TYPE":"U","ELEMENT_SET_NO":"999","MEAN_ELEMENT_THEORY":"SGP4","MEAN_MOTION_DOT":"-0.00006400","REF_FRAME":"TEME","RCS_SIZE":"LARGE","APOAPSIS":"548.534","FILE":"3728952","ARG_OF_PERICENTER":"41.7745","MEAN_MOTION":"15.06385449","MEAN_ANOMALY":"318.3384","GP_ID":"221987790","OBJECT_TYPE":"PAYLOAD","COUNTRY_CODE":"US","REV_AT_EPOCH":"10125","ECCENTRICITY":"0.00018420","OBJECT_ID":"2021-018BA","MEAN_MOTION_DDOT":"0.0000000000000","EPOCH":"2023-01-01T21:29:09.377952","TLE_LINE1":"1 47835U 21018BA  23001.89524743 -.00006400  00000-0 -41130-3 0  9991","SITE":"AFETR","DECAY_DATE":null,"BSTAR":"-0.00041130000000","OBJECT_NAME":"STARLINK-2425","RA_OF_ASC_NODE":"76.7421","INCLINATION":"53.0549","TIME_SYSTEM":"UTC","TLE_LINE2":"2 47835  53.0549  76.7421 0001842  41.7745 318.3384 15.06385449101259","LAUNCH_DATE":"2021-03-11"},{"DECAY_DATE":null,"TLE_LINE1":"1 47836U 21018BB  23001.88648691  .00005975  00000-0  41964-3 0  9999","SITE":"AFETR","BSTAR":"0.00041964000000","MEAN_MOTION_DDOT":"0.0000000000000","EPOCH":"2023-01-01T21:16:32.469024","REV_AT_EPOCH":"10133","ECCENTRICITY":"0.00014570","OBJECT_ID":"2021-018BB","MEAN_ANOMALY":"296.7344","GP_ID":"221989041","OBJECT_TYPE":"PAYLOAD","COUNTRY_CODE":"US","LAUNCH_DATE":"2021-03-11","TLE_LINE2":"2 47836  53.0538  71.7371 0001457  63.3794 296.7344 15.06404272101333","TIME_SYSTEM":"UTC","OBJECT_NAME":"STARLINK-2426","RA_OF_ASC_NODE":"71.7371","INCLINATION":"53.0538","ELEMENT_SET_NO":"999","MEAN_ELEMENT_THEORY":"SGP4","MEAN_MOTION_DOT":"0.00005975","NORAD_CAT_ID":"47836","CENTER_NAME":"EARTH","CLASSIFICATION_TYPE":"U","SEMIMAJOR_AXIS":"6925.335","PERIOD":"95.592","EPHEMERIS_TYPE":"0","PERIAPSIS":"546.191","APOAPSIS":"548.209","FILE":"3728952","ARG_OF_PERICENTER":"63.3794","MEAN_MOTION":"15.06404272","RCS_SIZE":"LARGE","REF_FRAME":"TEME"},{"ELEMENT_SET_NO":"999","MEAN_ELEMENT_THEORY":"SGP4","MEAN_MOTION_DOT":"-0.00004798","CENTER_NAME":"EARTH","NORAD_CAT_ID":"47837","CLASSIFICATION_TYPE":"U","SEMIMAJOR_AXIS":"6925.399","PERIOD":"95.593","EPHEMERIS_TYPE":"0","PERIAPSIS":"545.468","APOAPSIS":"549.059","FILE":"3728952","ARG_OF_PERICENTER":"30.4264","MEAN_MOTION":"15.06383628","RCS_SIZE":"LARGE","REF_FRAME":"TEME","TLE_LINE1":"1 47837U 21018BC  23001.82934205 -.00004798  00000-0 -30354-3 0  9998","BSTAR":"-0.00030354000000","DECAY_DATE":null,"SITE":"AFETR","MEAN_MOTION_DDOT":"0.0000000000000","EPOCH":"2023-01-01T19:54:15.153120","REV_AT_EPOCH":"10161","ECCENTRICITY":"0.00025930","OBJECT_ID":"2021-018BC","MEAN_ANOMALY":"329.6875","OBJECT_TYPE":"PAYLOAD","GP_ID":"221989291","COUNTRY_CODE":"US","LAUNCH_DATE":"2021-03-11","TLE_LINE2":"2 47837  53.0552  51.9054 0002593  30.4264 329.6875 15.06383628101614","TIME_SYSTEM":"UTC","OBJECT_NAME":"STARLINK-2427","RA_OF_ASC_NODE":"51.9054","INCLINATION":"53.0552"}];
